{
  "norad_id": 62927,
  "name": "STARLINK-32891",
  "history": [
    {
      "epoch": "2026-03-28T05:18:14.455296Z",
      "apogee_km": 484.1558183004554,
      "perigee_km": 481.74757616772513,
      "latitude_deg": 4.8324909555578356e-05,
      "longitude_deg": 119.24915729724493,
      "height_km": 483.01329733753556,
      "semi_major_axis_km": 6861.0886972340895,
      "eccentricity": 0.0001755,
      "inclination_deg": 43.0035,
      "raan_deg": 24.4539,
      "arg_perigee_deg": 256.3427,
      "mean_anomaly_deg": 103.723,
      "mean_motion_rev_day": 15.27612528
    },
    {
      "epoch": "2026-03-29T01:42:16.347456Z",
      "apogee_km": 483.7134255532201,
      "perigee_km": 482.2310142951628,
      "latitude_deg": -1.8967648297261553e-05,
      "longitude_deg": 167.60198145826922,
      "height_km": 482.9650493985408,
      "semi_major_axis_km": 6861.109219924191,
      "eccentricity": 0.00010803,
      "inclination_deg": 43.0024,
      "raan_deg": 19.6525,
      "arg_perigee_deg": 253.0407,
      "mean_anomaly_deg": 107.0326,
      "mean_motion_rev_day": 15.27605674
    },
    {
      "epoch": "2026-03-30T20:04:30.250272Z",
      "apogee_km": 484.8049781432701,
      "perigee_km": 481.1145314208088,
      "latitude_deg": -7.894557184866548e-06,
      "longitude_deg": -119.66422947144333,
      "height_km": 482.1375002252017,
      "semi_major_axis_km": 6861.096754782039,
      "eccentricity": 0.00026894,
      "inclination_deg": 43.0026,
      "raan_deg": 9.6843,
      "arg_perigee_deg": 288.9816,
      "mean_anomaly_deg": 71.0744,
      "mean_motion_rev_day": 15.27609837
    },
    {
      "epoch": "2026-03-31T11:46:05.348352Z",
      "apogee_km": 483.9619050587735,
      "perigee_km": 482.39999464067023,
      "latitude_deg": -1.6891522586232842e-06,
      "longitude_deg": 0.5988440133836187,
      "height_km": 482.9566074015032,
      "semi_major_axis_km": 6861.317949849722,
      "eccentricity": 0.00011382,
      "inclination_deg": 43.0011,
      "raan_deg": 5.9881,
      "arg_perigee_deg": 90.1007,
      "mean_anomaly_deg": 269.9975,
      "mean_motion_rev_day": 15.27535967
    },
    {
      "epoch": "2026-04-01T11:18:25.480800Z",
      "apogee_km": 484.7752772076101,
      "perigee_km": 481.27334047557724,
      "latitude_deg": -5.431441102632941e-05,
      "longitude_deg": 1.0133946704803396,
      "height_km": 482.69278840010224,
      "semi_major_axis_km": 6861.161308841593,
      "eccentricity": 0.0002552,
      "inclination_deg": 43.0048,
      "raan_deg": 0.4533,
      "arg_perigee_deg": 273.5899,
      "mean_anomaly_deg": 86.466,
      "mean_motion_rev_day": 15.27588278
    },
    {
      "epoch": "2026-04-02T10:50:45.484512Z",
      "apogee_km": 484.64384592127044,
      "perigee_km": 481.36518083768715,
      "latitude_deg": -1.6072914703506865e-05,
      "longitude_deg": 1.4231797560951363,
      "height_km": 482.9418662943401,
      "semi_major_axis_km": 6861.141513379478,
      "eccentricity": 0.00023893,
      "inclination_deg": 43.0065,
      "raan_deg": 354.9131,
      "arg_perigee_deg": 264.4269,
      "mean_anomaly_deg": 95.631,
      "mean_motion_rev_day": 15.27594889
    },
    {
      "epoch": "2026-04-03T10:23:07.127232Z",
      "apogee_km": 483.68860228446556,
      "perigee_km": 482.6817718667344,
      "latitude_deg": 4.6188203357315945e-06,
      "longitude_deg": 1.8279976117540262,
      "height_km": 482.7427081581015,
      "semi_major_axis_km": 6861.3221870756,
      "eccentricity": 7.337e-05,
      "inclination_deg": 43.0055,
      "raan_deg": 349.3748,
      "arg_perigee_deg": 295.8097,
      "mean_anomaly_deg": 64.2679,
      "mean_motion_rev_day": 15.27534552
    },
    {
      "epoch": "2026-04-04T00:30:32.846400Z",
      "apogee_km": 484.06527495086266,
      "perigee_km": 482.10859110963975,
      "latitude_deg": 1.432824382085847e-05,
      "longitude_deg": 146.0679004008492,
      "height_km": 483.0348783267767,
      "semi_major_axis_km": 6861.223933030251,
      "eccentricity": 0.00014259,
      "inclination_deg": 43.0032,
      "raan_deg": 346.0519,
      "arg_perigee_deg": 259.9393,
      "mean_anomaly_deg": 100.1298,
      "mean_motion_rev_day": 15.27567364
    },
    {
      "epoch": "2026-04-05T09:27:48.005568Z",
      "apogee_km": 483.5492948647907,
      "perigee_km": 482.3289838626433,
      "latitude_deg": 1.7992542133473855e-05,
      "longitude_deg": 2.6455581208080834,
      "height_km": 482.96541887769126,
      "semi_major_axis_km": 6861.076139363717,
      "eccentricity": 8.893e-05,
      "inclination_deg": 43.0037,
      "raan_deg": 338.2961,
      "arg_perigee_deg": 245.8411,
      "mean_anomaly_deg": 114.2348,
      "mean_motion_rev_day": 15.27616722
    },
    {
      "epoch": "2026-04-06T01:09:22.979232Z",
      "apogee_km": 483.66791250609276,
      "perigee_km": 482.4629481352804,
      "latitude_deg": -1.3621798485492804e-05,
      "longitude_deg": 122.91360901537087,
      "height_km": 483.22589006305645,
      "semi_major_axis_km": 6861.202430320686,
      "eccentricity": 8.781e-05,
      "inclination_deg": 43.0032,
      "raan_deg": 334.6044,
      "arg_perigee_deg": 230.3936,
      "mean_anomaly_deg": 129.6838,
      "mean_motion_rev_day": 15.27574545
    },
    {
      "epoch": "2026-04-07T14:49:07.375872Z",
      "apogee_km": 484.3697995046523,
      "perigee_km": 481.3692069205381,
      "latitude_deg": -1.0673404627586527e-05,
      "longitude_deg": -92.42801504747135,
      "height_km": 481.87982495155535,
      "semi_major_axis_km": 6861.006503212595,
      "eccentricity": 0.00021867,
      "inclination_deg": 42.9935,
      "raan_deg": 325.7445,
      "arg_perigee_deg": 59.4626,
      "mean_anomaly_deg": 300.6441,
      "mean_motion_rev_day": 15.27639979
    },
    {
      "epoch": "2026-04-07T16:23:16.594080Z",
      "apogee_km": 483.837868624817,
      "perigee_km": 482.29821421352335,
      "latitude_deg": 3.298425980727152e-05,
      "longitude_deg": -116.40382375481418,
      "height_km": 482.77807538402266,
      "semi_major_axis_km": 6861.20504141917,
      "eccentricity": 0.0001122,
      "inclination_deg": 43.0018,
      "raan_deg": 325.3715,
      "arg_perigee_deg": 274.9657,
      "mean_anomaly_deg": 85.1067,
      "mean_motion_rev_day": 15.27573673
    },
    {
      "epoch": "2026-04-08T00:14:03.659712Z",
      "apogee_km": 484.0162247775743,
      "perigee_km": 482.1033231169986,
      "latitude_deg": -6.433226684901375e-06,
      "longitude_deg": 123.73338596138714,
      "height_km": 482.61802297395604,
      "semi_major_axis_km": 6861.196773947287,
      "eccentricity": 0.0001394,
      "inclination_deg": 43.003,
      "raan_deg": 323.5271,
      "arg_perigee_deg": 283.2232,
      "mean_anomaly_deg": 76.8464,
      "mean_motion_rev_day": 15.27576434
    },
    {
      "epoch": "2026-04-08T23:46:24.725280Z",
      "apogee_km": 483.4276938014682,
      "perigee_km": 482.59708305650474,
      "latitude_deg": -1.5694339745866683e-05,
      "longitude_deg": 124.13937988307701,
      "height_km": 482.78575857628726,
      "semi_major_axis_km": 6861.149388428986,
      "eccentricity": 6.053e-05,
      "inclination_deg": 42.9994,
      "raan_deg": 317.9876,
      "arg_perigee_deg": 270.3538,
      "mean_anomaly_deg": 89.7244,
      "mean_motion_rev_day": 15.27592259
    },
    {
      "epoch": "2026-04-10T13:26:10.168224Z",
      "apogee_km": 483.32653232749726,
      "perigee_km": 482.58416213552755,
      "latitude_deg": -5.816417901069493e-06,
      "longitude_deg": -91.20820842250856,
      "height_km": 482.3714223729159,
      "semi_major_axis_km": 6861.092347231512,
      "eccentricity": 5.41e-05,
      "inclination_deg": 43.0008,
      "raan_deg": 309.1261,
      "arg_perigee_deg": 14.5191,
      "mean_anomaly_deg": 345.5676,
      "mean_motion_rev_day": 15.27611309
    },
    {
      "epoch": "2026-04-11T14:32:40.311168Z",
      "apogee_km": 483.25834904333715,
      "perigee_km": 482.7808125453148,
      "latitude_deg": 1.621659095137491e-05,
      "longitude_deg": -114.77774675691978,
      "height_km": 482.92150822876073,
      "semi_major_axis_km": 6861.156580794326,
      "eccentricity": 3.48e-05,
      "inclination_deg": 42.9968,
      "raan_deg": 303.2133,
      "arg_perigee_deg": 237.9791,
      "mean_anomaly_deg": 122.1027,
      "mean_motion_rev_day": 15.27589857
    },
    {
      "epoch": "2026-04-13T05:46:34.896288Z",
      "apogee_km": 484.0938723587815,
      "perigee_km": 481.96745927579104,
      "latitude_deg": -1.4937506133154803e-05,
      "longitude_deg": 5.903387062337139,
      "height_km": 482.9722621054776,
      "semi_major_axis_km": 6861.167665817286,
      "eccentricity": 0.00015496,
      "inclination_deg": 43.001,
      "raan_deg": 293.9831,
      "arg_perigee_deg": 261.0886,
      "mean_anomaly_deg": 98.979,
      "mean_motion_rev_day": 15.27586155
    },
    {
      "epoch": "2026-04-14T19:26:20.042880Z",
      "apogee_km": 483.53788287115367,
      "perigee_km": 482.48949904557503,
      "latitude_deg": -7.59215077094557e-06,
      "longitude_deg": 150.55514017816216,
      "height_km": 482.81033436978987,
      "semi_major_axis_km": 6861.150690958364,
      "eccentricity": 7.64e-05,
      "inclination_deg": 42.9992,
      "raan_deg": 285.1197,
      "arg_perigee_deg": 267.749,
      "mean_anomaly_deg": 92.3274,
      "mean_motion_rev_day": 15.27591824
    },
    {
      "epoch": "2026-04-15T20:32:49.960320Z",
      "apogee_km": 483.89858427377203,
      "perigee_km": 482.0927341578672,
      "latitude_deg": 5.687077601558183e-06,
      "longitude_deg": 126.9927386730712,
      "height_km": 482.8040123697625,
      "semi_major_axis_km": 6861.132659215819,
      "eccentricity": 0.0001316,
      "inclination_deg": 43.0012,
      "raan_deg": 279.2131,
      "arg_perigee_deg": 267.9947,
      "mean_anomaly_deg": 92.0754,
      "mean_motion_rev_day": 15.27597846
    }
  ]
}